H1 CPF 01  gfz 2022 04 20 12  6102 terrasarx 
H2 0702601  6201 31698    2022 04 20 12 59 42 2022 04 25 00 00 42   120 1 1  0 0 0
H9
10 0 59690  76302.000000  0   -4643916.785   5088914.529    -45788.345
10 0 59690  76422.000000  0   -4467825.469   5159432.225   -948022.504
10 0 59690  76542.000000  0   -4213291.994   5136071.381  -1833581.609
10 0 59690  76662.000000  0   -3886470.087   5017991.352  -2686913.706
10 0 59690  76782.000000  0   -3494776.349   4806134.924  -3493064.877
10 0 59690  76902.000000  0   -3046720.391   4503222.297  -4237944.165
10 0 59690  77022.000000  0   -2551717.467   4113710.377  -4908567.547
10 0 59690  77142.000000  0   -2019888.677   3643720.059  -5493277.637
10 0 59690  77262.000000  0   -1461853.396   3100933.431  -5981938.559
10 0 59690  77382.000000  0    -888516.949   2494461.113  -6366102.225
10 0 59690  77502.000000  0    -310858.784   1834684.216  -6639142.593
10 0 59690  77622.000000  0     260274.152   1133075.334  -6796358.689
10 0 59690  77742.000000  0     814365.823    402000.774  -6835047.378
10 0 59690  77862.000000  0    1341420.823   -345493.448  -6754545.573
10 0 59690  77982.000000  0    1832140.342  -1095909.822  -6556238.869
10 0 59690  78102.000000  0    2278082.027  -1835536.481  -6243539.931
10 0 59690  78222.000000  0    2671803.458  -2550691.396  -5821836.313
10 0 59690  78342.000000  0    3006986.574  -3227971.436  -5298408.983
10 0 59690  78462.000000  0    3278542.224  -3854504.502  -4682317.439
10 0 59690  78582.000000  0    3482689.539  -4418195.190  -3984251.720
10 0 59690  78702.000000  0    3617010.603  -4907961.002  -3216357.662
10 0 59690  78822.000000  0    3680480.704  -5313957.128  -2392034.411
10 0 59690  78942.000000  0    3673470.174  -5627782.968  -1525703.828
10 0 59690  79062.000000  0    3597718.084  -5842662.770   -632557.971
10 0 59690  79182.000000  0    3456277.758  -5953597.680    271711.724
10 0 59690  79302.000000  0    3253433.996  -5957482.942   1171196.748
10 0 59690  79422.000000  0    2994596.240  -5853188.761   2050059.998
10 0 59690  79542.000000  0    2686167.744  -5641599.315   2892824.831
10 0 59690  79662.000000  0    2335394.804  -5325611.027   3684654.651
10 0 59690  79782.000000  0    1950201.496  -4910091.448   4411619.032
10 0 59690  79902.000000  0    1539013.312  -4401798.766   5060942.119
10 0 59690  80022.000000  0    1110574.920  -3809264.398   5621227.497
10 0 59690  80142.000000  0     673764.202  -3142640.778   6082656.776
10 0 59690  80262.000000  0     237408.320  -2413518.951   6437155.276
10 0 59690  80382.000000  0    -189893.411  -1634721.761   6678526.193
10 0 59690  80502.000000  0    -599937.275   -820076.079   6802553.077
10 0 59690  80622.000000  0    -985071.389     15834.225   6807070.113
10 0 59690  80742.000000  0   -1338337.685    857929.799   6691997.433
10 0 59690  80862.000000  0   -1653597.146   1690907.210   6459342.078
10 0 59690  80982.000000  0   -1925636.698   2499516.105   6113165.329
10 0 59690  81102.000000  0   -2150256.132   3268838.629   5659516.121
10 0 59690  81222.000000  0   -2324333.352   3984566.183   5106331.230
10 0 59690  81342.000000  0   -2445868.011   4633269.982   4463303.562
10 0 59690  81462.000000  0   -2514001.711   5202659.960   3741717.467
10 0 59690  81582.000000  0   -2529014.201   5681826.020   2954253.400
10 0 59690  81702.000000  0   -2492295.115   6061455.200   2114764.833
10 0 59690  81822.000000  0   -2406292.355   6334020.584   1238032.184
10 0 59690  81942.000000  0   -2274437.517   6493936.955    339497.371
10 0 59690  82062.000000  0   -2101050.514   6537678.981   -565015.438
10 0 59690  82182.000000  0   -1891226.061   6463859.241  -1459587.702
10 0 59690  82302.000000  0   -1650703.538   6273261.509  -2328498.662
10 0 59690  82422.000000  0   -1385723.837   5968825.920  -3156508.873
10 0 59690  82542.000000  0   -1102879.154   5555594.186  -3929129.257
10 0 59690  82662.000000  0    -808959.170   5040615.179  -4632874.890
10 0 59690  82782.000000  0    -510796.769   4432812.497  -5255496.331
10 0 59690  82902.000000  0    -215116.693   3742819.698  -5786186.280
10 0 59690  83022.000000  0      71609.768   2982784.858  -6215758.745
10 0 59690  83142.000000  0     343300.234   2166149.434  -6536796.656
10 0 59690  83262.000000  0     594384.243   1307408.642  -6743768.144
10 0 59690  83382.000000  0     819912.776    421855.606  -6833112.910
10 0 59690  83502.000000  0    1015652.043   -474686.985  -6803296.640
10 0 59690  83622.000000  0    1178160.194  -1366144.108  -6654833.525
10 0 59690  83742.000000  0    1304846.101  -2236468.642  -6390276.953
10 0 59690  83862.000000  0    1394010.381  -3069922.417  -6014181.449
10 0 59690  83982.000000  0    1444867.583  -3851357.352  -5533034.426
10 0 59690  84102.000000  0    1457548.102  -4566491.374  -4955154.074
10 0 59690  84222.000000  0    1433081.552  -5202170.968  -4290555.964
10 0 59690  84342.000000  0    1373360.406  -5746619.645  -3550791.093
10 0 59690  84462.000000  0    1281083.751  -6189665.963  -2748753.261
10 0 59690  84582.000000  0    1159683.645  -6522944.811  -1898459.716
10 0 59690  84702.000000  0    1013234.943  -6740067.768  -1014807.706
10 0 59690  84822.000000  0     846349.383  -6836756.780   -113310.869
10 0 59690  84942.000000  0     664057.520  -6810936.704    790178.603
10 0 59690  85062.000000  0     471681.360  -6662785.082   1679756.070
10 0 59690  85182.000000  0     274700.718  -6394736.964   2539753.935
10 0 59690  85302.000000  0      78616.745  -6011442.636   3355027.757
10 0 59690  85422.000000  0    -111184.423  -5519679.118   4111229.646
10 0 59690  85542.000000  0    -289563.784  -4928222.030   4795063.733
10 0 59690  85662.000000  0    -451753.828  -4247679.222   5394521.467
10 0 59690  85782.000000  0    -593472.097  -3490290.833   5899091.090
10 0 59690  85902.000000  0    -711022.034  -2669698.975   6299938.668
10 0 59690  86022.000000  0    -801378.720  -1800694.370   6590055.028
10 0 59690  86142.000000  0    -862258.133   -898947.140   6764371.514
10 0 59690  86262.000000  0    -892169.226     19277.284   6819844.560
10 0 59690  86382.000000  0    -890447.644    937412.131   6755505.733
10 0 59691    102.000000  0    -857269.369   1838887.789   6572477.543
10 0 59691    222.000000  0    -793644.852   2707430.204   6273954.946
10 0 59691    342.000000  0    -701394.231   3527354.722   5865153.273
10 0 59691    462.000000  0    -583103.948   4283851.641   5353222.225
10 0 59691    582.000000  0    -442064.979   4963257.459   4747126.841
10 0 59691    702.000000  0    -282194.291   5553309.730   4057496.678
10 0 59691    822.000000  0    -107939.983   6043375.736   3296441.885
10 0 59691    942.000000  0      75825.717   6424654.215   2477346.156
10 0 59691   1062.000000  0     263925.691   6690347.924   1614627.724
10 0 59691   1182.000000  0     451006.843   6835790.922    723479.325
10 0 59691   1302.000000  0     631673.956   6858535.825   -180405.733
10 0 59691   1422.000000  0     800625.735   6758396.777  -1081118.707
10 0 59691   1542.000000  0     952788.073   6537445.856  -1962824.212
10 0 59691   1662.000000  0    1083441.708   6199965.160  -2810045.734
10 0 59691   1782.000000  0    1188341.990   5752355.416  -3607942.578
10 0 59691   1902.000000  0    1263827.847   5203003.652  -4342572.273
10 0 59691   2022.000000  0    1306917.075   4562113.639  -5001133.022
10 0 59691   2142.000000  0    1315385.823   3841504.253  -5572181.040
10 0 59691   2262.000000  0    1287830.419   3054382.436  -6045820.987
10 0 59691   2382.000000  0    1223710.826   2215093.861  -6413867.238
10 0 59691   2502.000000  0    1123374.872   1338858.616  -6669972.846
10 0 59691   2622.000000  0     988063.613    441497.037  -6809729.152
10 0 59691   2742.000000  0     819897.480   -460852.295  -6830733.794
10 0 59691   2862.000000  0     621843.273  -1352017.230  -6732626.512
10 0 59691   2982.000000  0     397662.885  -2216073.887  -6517093.109
10 0 59691   3102.000000  0     151844.828  -3037623.141  -6187841.067
10 0 59691   3222.000000  0    -110482.260  -3802062.065  -5750543.963
10 0 59691   3342.000000  0    -383651.174  -4495842.075  -5212752.474
10 0 59691   3462.000000  0    -661571.791  -5106711.344  -4583775.709
10 0 59691   3582.000000  0    -937859.838  -5623937.811  -3874531.410
10 0 59691   3702.000000  0   -1205975.992  -6038507.385  -3097365.777
10 0 59691   3822.000000  0   -1459372.166  -6343292.428  -2265845.447
10 0 59691   3942.000000  0   -1691642.194  -6533187.222  -1394524.323
10 0 59691   4062.000000  0   -1896672.929  -6605205.739   -498687.748
10 0 59691   4182.000000  0   -2068792.039  -6558537.789    405920.386
10 0 59691   4302.000000  0   -2202909.029  -6394561.530   1303381.567
10 0 59691   4422.000000  0   -2294645.402  -6116811.755   2177891.595
10 0 59691   4542.000000  0   -2340450.365  -5730904.342   3014048.138
10 0 59691   4662.000000  0   -2337698.628  -5244418.665   3797129.901
10 0 59691   4782.000000  0   -2284768.211  -4666741.780   4513360.930
10 0 59691   4902.000000  0   -2181096.875  -4008879.448   5150155.185
10 0 59691   5022.000000  0   -2027216.392  -3283237.764   5696338.249
10 0 59691   5142.000000  0   -1824762.464  -2503379.788   6142340.168
10 0 59691   5262.000000  0   -1576460.615  -1683766.114   6480357.302
10 0 59691   5382.000000  0   -1286089.716   -839482.992   6704483.445
10 0 59691   5502.000000  0    -958424.231     14038.572   6810806.461
10 0 59691   5622.000000  0    -599156.056    861304.202   6797471.412
10 0 59691   5742.000000  0    -214795.617   1687036.724   6664711.788
10 0 59691   5862.000000  0     187446.092   2476451.405   6414845.713
10 0 59691   5982.000000  0     599792.245   3215520.455   6052237.564
10 0 59691   6102.000000  0    1014048.975   3891223.510   5583226.745
10 0 59691   6222.000000  0    1421766.490   4491780.764   5016022.629
10 0 59691   6342.000000  0    1814409.933   5006864.412   4360566.913
99
